{
  "type": "FeatureCollection",
  "features": [
    {
      "type": "Feature",
      "properties": {
        "norad_id": 24946,
        "name": "IRIDIUM 33",
        "group": "iridium-33-debris",
        "lat": 59.02262990199586,
        "lon": -121.0355453460416,
        "alt_km": 765.9890457587999,
        "timestamp": "2025-12-20T09:36:02.033299+00:00",
        "meta_object_name": "IRIDIUM 33",
        "meta_object_id": "1997-051C",
        "meta_epoch": "2025-12-19T11:17:03.474240",
        "meta_mean_motion": 14.35041894,
        "meta_eccentricity": 0.0007833,
        "meta_inclination": 86.3867,
        "meta_ra_of_asc_node": 65.3967,
        "meta_arg_of_pericenter": 177.5382,
        "meta_mean_anomaly": 182.5855,
        "meta_ephemeris_type": 0,
        "meta_classification_type": "U",
        "meta_norad_cat_id": 24946,
        "meta_element_set_no": 999,
        "meta_rev_at_epoch": 47931,
        "meta_bstar": 8.767e-05,
        "meta_mean_motion_dot": 2.7e-06,
        "meta_mean_motion_ddot": 0,
        "tle_line1": "1 24946U 97051C   25353.47017910  .00000270  00000+0  87670-4 0  9994",
        "tle_line2": "2 24946  86.3867  65.3967 0007833 177.5382 182.5855 14.35041894479312"
      },
      "geometry": {
        "type": "Point",
        "coordinates": [
          -121.0355453460416,
          59.02262990199586
        ]
      }
    },
    {
      "type": "Feature",
      "properties": {
        "norad_id": 33773,
        "name": "IRIDIUM 33 DEB",
        "group": "iridium-33-debris",
        "lat": -55.60898783557992,
        "lon": 52.06637069472026,
        "alt_km": 764.1628277362288,
        "timestamp": "2025-12-20T09:36:02.033343+00:00",
        "meta_object_name": "IRIDIUM 33 DEB",
        "meta_object_id": "1997-051L",
        "meta_epoch": "2025-12-20T04:52:02.270784",
        "meta_mean_motion": 14.43271484,
        "meta_eccentricity": 0.0013069,
        "meta_inclination": 86.4002,
        "meta_ra_of_asc_node": 57.4269,
        "meta_arg_of_pericenter": 124.763,
        "meta_mean_anomaly": 235.4803,
        "meta_ephemeris_type": 0,
        "meta_classification_type": "U",
        "meta_norad_cat_id": 33773,
        "meta_element_set_no": 999,
        "meta_rev_at_epoch": 88455,
        "meta_bstar": 0.00020332,
        "meta_mean_motion_dot": 7.05e-06,
        "meta_mean_motion_ddot": 0,
        "tle_line1": "1 33773U 97051L   25354.20280406  .00000705  00000+0  20332-3 0  9990",
        "tle_line2": "2 33773  86.4002  57.4269 0013069 124.7630 235.4803 14.43271484884553"
      },
      "geometry": {
        "type": "Point",
        "coordinates": [
          52.06637069472026,
          -55.60898783557992
        ]
      }
    },
    {
      "type": "Feature",
      "properties": {
        "norad_id": 33775,
        "name": "IRIDIUM 33 DEB",
        "group": "iridium-33-debris",
        "lat": -21.58422858063792,
        "lon": 44.84110318049003,
        "alt_km": 768.5367208450025,
        "timestamp": "2025-12-20T09:36:02.033359+00:00",
        "meta_object_name": "IRIDIUM 33 DEB",
        "meta_object_id": "1997-051N",
        "meta_epoch": "2025-12-20T03:10:16.234176",
        "meta_mean_motion": 14.41482945,
        "meta_eccentricity": 0.0015002,
        "meta_inclination": 86.3628,
        "meta_ra_of_asc_node": 46.3974,
        "meta_arg_of_pericenter": 132.4513,
        "meta_mean_anomaly": 256.8182,
        "meta_ephemeris_type": 0,
        "meta_classification_type": "U",
        "meta_norad_cat_id": 33775,
        "meta_element_set_no": 999,
        "meta_rev_at_epoch": 88247,
        "meta_bstar": 0.00021801,
        "meta_mean_motion_dot": 7.28e-06,
        "meta_mean_motion_ddot": 0,
        "tle_line1": "1 33775U 97051N   25354.13213234  .00000728  00000+0  21801-3 0  9996",
        "tle_line2": "2 33775  86.3628  46.3974 0015002 132.4513 256.8182 14.41482945882473"
      },
      "geometry": {
        "type": "Point",
        "coordinates": [
          44.84110318049003,
          -21.58422858063792
        ]
      }
    },
    {
      "type": "Feature",
      "properties": {
        "norad_id": 33776,
        "name": "IRIDIUM 33 DEB",
        "group": "iridium-33-debris",
        "lat": 60.706283725445594,
        "lon": -108.87770759436829,
        "alt_km": 751.0129773377839,
        "timestamp": "2025-12-20T09:36:02.033372+00:00",
        "meta_object_name": "IRIDIUM 33 DEB",
        "meta_object_id": "1997-051P",
        "meta_epoch": "2025-12-20T04:19:37.589088",
        "meta_mean_motion": 14.38247288,
        "meta_eccentricity": 0.0015217,
        "meta_inclination": 86.4034,
        "meta_ra_of_asc_node": 77.6514,
        "meta_arg_of_pericenter": 166.4011,
        "meta_mean_anomaly": 255.8053,
        "meta_ephemeris_type": 0,
        "meta_classification_type": "U",
        "meta_norad_cat_id": 33776,
        "meta_element_set_no": 999,
        "meta_rev_at_epoch": 88189,
        "meta_bstar": 0.00019844,
        "meta_mean_motion_dot": 6.23e-06,
        "meta_mean_motion_ddot": 0,
        "tle_line1": "1 33776U 97051P   25354.18029617  .00000623  00000+0  19844-3 0  9990",
        "tle_line2": "2 33776  86.4034  77.6514 0015217 166.4011 255.8053 14.38247288881897"
      },
      "geometry": {
        "type": "Point",
        "coordinates": [
          -108.87770759436829,
          60.706283725445594
        ]
      }
    },
    {
      "type": "Feature",
      "properties": {
        "norad_id": 33777,
        "name": "IRIDIUM 33 DEB",
        "group": "iridium-33-debris",
        "lat": 25.845897318525754,
        "lon": 33.62963797267759,
        "alt_km": 710.4597830601124,
        "timestamp": "2025-12-20T09:36:02.033386+00:00",
        "meta_object_name": "IRIDIUM 33 DEB",
        "meta_object_id": "1997-051Q",
        "meta_epoch": "2025-12-20T02:52:57.439200",
        "meta_mean_motion": 14.55661313,
        "meta_eccentricity": 0.0005746,
        "meta_inclination": 86.3776,
        "meta_ra_of_asc_node": 31.9929,
        "meta_arg_of_pericenter": 216.4794,
        "meta_mean_anomaly": 143.6022,
        "meta_ephemeris_type": 0,
        "meta_classification_type": "U",
        "meta_norad_cat_id": 33777,
        "meta_element_set_no": 999,
        "meta_rev_at_epoch": 88641,
        "meta_bstar": 0.00052722,
        "meta_mean_motion_dot": 2.323e-05,
        "meta_mean_motion_ddot": 0,
        "tle_line1": "1 33777U 97051Q   25354.12010925  .00002323  00000+0  52722-3 0  9998",
        "tle_line2": "2 33777  86.3776  31.9929 0005746 216.4794 143.6022 14.55661313886414"
      },
      "geometry": {
        "type": "Point",
        "coordinates": [
          33.62963797267759,
          25.845897318525754
        ]
      }
    },
    {
      "type": "Feature",
      "properties": {
        "norad_id": 33850,
        "name": "IRIDIUM 33 DEB",
        "group": "iridium-33-debris",
        "lat": -21.97852374701556,
        "lon": 25.40581102640384,
        "alt_km": 765.4316915351492,
        "timestamp": "2025-12-20T09:36:02.033398+00:00",
        "meta_object_name": "IRIDIUM 33 DEB",
        "meta_object_id": "1997-051T",
        "meta_epoch": "2025-12-19T23:55:02.065152",
        "meta_mean_motion": 14.42161662,
        "meta_eccentricity": 0.0012905,
        "meta_inclination": 86.3411,
        "meta_ra_of_asc_node": 27.0591,
        "meta_arg_of_pericenter": 139.2842,
        "meta_mean_anomaly": 265.4509,
        "meta_ephemeris_type": 0,
        "meta_classification_type": "U",
        "meta_norad_cat_id": 33850,
        "meta_element_set_no": 999,
        "meta_rev_at_epoch": 88257,
        "meta_bstar": 0.00025875,
        "meta_mean_motion_dot": 8.72e-06,
        "meta_mean_motion_ddot": 0,
        "tle_line1": "1 33850U 97051T   25353.99655168  .00000872  00000+0  25875-3 0  9994",
        "tle_line2": "2 33850  86.3411  27.0591 0012905 139.2842 265.4509 14.42161662882578"
      },
      "geometry": {
        "type": "Point",
        "coordinates": [
          25.40581102640384,
          -21.97852374701556
        ]
      }
    },
    {
      "type": "Feature",
      "properties": {
        "norad_id": 33853,
        "name": "IRIDIUM 33 DEB",
        "group": "iridium-33-debris",
        "lat": -76.31263405729656,
        "lon": -176.84976770356644,
        "alt_km": 795.6212988200878,
        "timestamp": "2025-12-20T09:36:02.033411+00:00",
        "meta_object_name": "IRIDIUM 33 DEB",
        "meta_object_id": "1997-051W",
        "meta_epoch": "2025-12-20T00:03:55.806336",
        "meta_mean_motion": 13.9909965,
        "meta_eccentricity": 0.020721,
        "meta_inclination": 85.9996,
        "meta_ra_of_asc_node": 346.6259,
        "meta_arg_of_pericenter": 213.3945,
        "meta_mean_anomaly": 201.9671,
        "meta_ephemeris_type": 0,
        "meta_classification_type": "U",
        "meta_norad_cat_id": 33853,
        "meta_element_set_no": 999,
        "meta_rev_at_epoch": 85447,
        "meta_bstar": 0.0010991,
        "meta_mean_motion_dot": 1.929e-05,
        "meta_mean_motion_ddot": 0,
        "tle_line1": "1 33853U 97051W   25354.00272924  .00001929  00000+0  10991-2 0  9991",
        "tle_line2": "2 33853  85.9996 346.6259 0207210 213.3945 201.9671 13.99099650854479"
      },
      "geometry": {
        "type": "Point",
        "coordinates": [
          -176.84976770356644,
          -76.31263405729656
        ]
      }
    }
  ]
}